[{"OBJECT_NAME":"STARLINK-31459","OBJECT_ID":"2024-049C","EPOCH":"2026-03-09T05:11:09.763872","MEAN_MOTION":15.27579059,"ECCENTRICITY":7.958e-5,"INCLINATION":43.0004,"RA_OF_ASC_NODE":146.2142,"ARG_OF_PERICENTER":294.7089,"MEAN_ANOMALY":65.368,"EPHEMERIS_TYPE":0,"CLASSIFICATION_TYPE":"U","NORAD_CAT_ID":59233,"ELEMENT_SET_NO":999,"REV_AT_EPOCH":11232,"BSTAR":-8.9984727e-5,"MEAN_MOTION_DOT":-2.737e-5,"MEAN_MOTION_DDOT":0},{"OBJECT_NAME":"FENGYUN 1C DEB","OBJECT_ID":"1999-025BZU","EPOCH":"2026-03-09T17:19:51.665664","MEAN_MOTION":15.28412118,"ECCENTRICITY":0.00188802,"INCLINATION":98.9598,"RA_OF_ASC_NODE":354.2029,"ARG_OF_PERICENTER":82.3682,"MEAN_ANOMALY":277.9697,"EPHEMERIS_TYPE":0,"CLASSIFICATION_TYPE":"U","NORAD_CAT_ID":31614,"ELEMENT_SET_NO":999,"REV_AT_EPOCH":97742,"BSTAR":0.011500831,"MEAN_MOTION_DOT":0.0033373,"MEAN_MOTION_DDOT":0}]
